0 THORAD AGENA D DEB
1 05694U 70025LZ  13281.36336948  .00006553  00000-0  21512-2 0  8334
2 05694 099.8398 078.9054 0034127 279.5990 080.1338 14.38388838197265
0 THORAD AGENA D DEB
1 05694U 70025LZ  13282.68501009  .00009130  00000-0  29868-2 0  8349
2 05694 099.8397 080.4184 0034227 275.8690 083.8591 14.38417254197450
0 THORAD AGENA D DEB
1 05694U 70025LZ  13286.64980043  .00009112  00000-0  29771-2 0  8363
2 05694 099.8387 084.9572 0034440 264.8157 094.9095 14.38479865198024
0 THORAD AGENA D DEB
1 05694U 70025LZ  13288.66690358  .00012183  00000-0  39686-2 0  8373
2 05694 099.8384 087.2668 0034578 259.3063 100.4226 14.38523118198312
0 THORAD AGENA D DEB
1 05694U 70025LZ  13290.40573780  .00013149  00000-0  42785-2 0  8385
2 05694 099.8385 089.2578 0034643 254.4940 105.2416 14.38555674198561
0 THORAD AGENA D DEB
1 05694U 70025LZ  13292.42273245  .00011271  00000-0  36676-2 0  8399
2 05694 099.8393 091.5672 0034665 248.9537 110.7938 14.38598325198857
0 THORAD AGENA D DEB
1 05694U 70025LZ  13294.71786133  .00014766  00000-0  47923-2 0  8409
2 05694 099.8397 094.1955 0034698 242.6330 117.1320 14.38645183199180
